COMMENT,ORIGINATOR,NORAD_CAT_ID,OBJECT_NAME,OBJECT_TYPE,CLASSIFICATION_TYPE,INTLDES,EPOCH,EPOCH_MICROSECONDS,MEAN_MOTION,ECCENTRICITY,INCLINATION,RA_OF_ASC_NODE,ARG_OF_PERICENTER,MEAN_ANOMALY,EPHEMERIS_TYPE,ELEMENT_SET_NO,REV_AT_EPOCH,BSTAR,MEAN_MOTION_DOT,MEAN_MOTION_DDOT,FILE,TLE_LINE0,TLE_LINE1,TLE_LINE2,OBJECT_ID,OBJECT_NUMBER,SEMIMAJOR_AXIS,PERIOD,APOGEE,PERIGEE,DECAYED
"GENERATED VIA SPACETRACK.ORG API","18 SPCS","55094","SPACEBEE-165","PAYLOAD","U","23001CP","2024-03-26 16:52:06","575232","15.37599611","0.0010054","97.4302","151.6323","89.1469","271.0927","0","999","6837","0.001762","0.00065514","0","4247357","0 SPACEBEE-165","1 55094U 23001CP  24086.70285388  .00065514  00000-0  17620-2 0  9999","2 55094  97.4302 151.6323 0010054  89.1469 271.0927 15.37599611 68377","2023-001CP","55094","6831.347","93.652","460.080","446.344","0"
"GENERATED VIA SPACETRACK.ORG API","18 SPCS","55094","SPACEBEE-165","PAYLOAD","U","23001CP","2024-03-27 10:02:55","348224","15.37689042","0.0009951","97.4299","152.3565","86.9893","273.249","0","999","6848","0.0017571","0.00065519","0","4247956","0 SPACEBEE-165","1 55094U 23001CP  24087.41869616  .00065519  00000-0  17571-2 0  9990","2 55094  97.4299 152.3565 0009951  86.9893 273.2490 15.37689042 68487","2023-001CP","55094","6831.082","93.647","459.745","446.149","0"
"GENERATED VIA SPACETRACK.ORG API","18 SPCS","55094","SPACEBEE-165","PAYLOAD","U","23001CP","2024-03-27 16:17:45","34080","15.37714965","0.0009879","97.4298","152.6199","85.8497","274.3877","0","999","6852","0.0013531","0.00050378","0","4248258","0 SPACEBEE-165","1 55094U 23001CP  24087.67899345  .00050378  00000-0  13531-2 0  9999","2 55094  97.4298 152.6199 0009879  85.8497 274.3877 15.37714965 68528","2023-001CP","55094","6831.005","93.645","459.619","446.122","0"
"GENERATED VIA SPACETRACK.ORG API","18 SPCS","55094","SPACEBEE-165","PAYLOAD","U","23001CP","2024-03-27 16:17:45","34080","15.37714965","0.0009879","97.4298","152.6199","85.8497","274.3877","0","999","6852","0.0013531","0.00050378","0","4248304","0 SPACEBEE-165","1 55094U 23001CP  24087.67899345  .00050378  00000-0  13531-2 0  9999","2 55094  97.4298 152.6199 0009879  85.8497 274.3877 15.37714965 68528","2023-001CP","55094","6831.005","93.645","459.619","446.122","0"
"GENERATED VIA SPACETRACK.ORG API","18 SPCS","55094","SPACEBEE-165","PAYLOAD","U","23001CP","2024-03-28 09:28:29","315136","15.3779905","0.0009797","97.4298","153.3442","83.7467","276.4893","0","999","6863","0.0016194","0.00060551","0","4249475","0 SPACEBEE-165","1 55094U 23001CP  24088.39478374  .00060551  00000-0  16194-2 0  9996","2 55094  97.4298 153.3442 0009797  83.7467 276.4893 15.37799050 68631","2023-001CP","55094","6830.756","93.640","459.313","445.929","0"
"GENERATED VIA SPACETRACK.ORG API","18 SPCS","55094","SPACEBEE-165","PAYLOAD","U","23001CP","2024-03-28 09:28:29","315136","15.3779905","0.0009797","97.4298","153.3442","83.7467","276.4893","0","999","6863","0.0016194","0.00060551","0","4249797","0 SPACEBEE-165","1 55094U 23001CP  24088.39478374  .00060551  00000-0  16194-2 0  9996","2 55094  97.4298 153.3442 0009797  83.7467 276.4893 15.37799050 68631","2023-001CP","55094","6830.756","93.640","459.313","445.929","0"
"GENERATED VIA SPACETRACK.ORG API","18 SPCS","55094","SPACEBEE-165","PAYLOAD","U","23001CP","2024-03-29 10:27:38","747232","15.37918164","0.0009757","97.4291","154.3979","80.6647","279.57","0","999","6879","0.0014588","0.00054707","0","4251025","0 SPACEBEE-165","1 55094U 23001CP  24089.43586513  .00054707  00000-0  14588-2 0  9998","2 55094  97.4291 154.3979 0009757  80.6647 279.5700 15.37918164 68799","2023-001CP","55094","6830.403","93.633","458.933","445.604","0"
"GENERATED VIA SPACETRACK.ORG API","18 SPCS","55094","SPACEBEE-165","PAYLOAD","U","23001CP","2024-03-29 10:27:38","747232","15.37918164","0.0009757","97.4291","154.3979","80.6647","279.57","0","999","6879","0.0014588","0.00054707","0","4251655","0 SPACEBEE-165","1 55094U 23001CP  24089.43586513  .00054707  00000-0  14588-2 0  9998","2 55094  97.4291 154.3979 0009757  80.6647 279.5700 15.37918164 68799","2023-001CP","55094","6830.403","93.633","458.933","445.604","0"
"GENERATED VIA SPACETRACK.ORG API","18 SPCS","55094","SPACEBEE-165","PAYLOAD","U","23001CP","2024-03-31 10:51:57","123936","15.38128962","0.0009591","97.4289","156.4398","73.8208","286.4091","0","999","6910","0.0014515","0.00054803","0","4255611","0 SPACEBEE-165","1 55094U 23001CP  24091.45274449  .00054803  00000-0  14515-2 0  9992","2 55094  97.4289 156.4398 0009591  73.8208 286.4091 15.38128962 69103","2023-001CP","55094","6829.779","93.620","458.195","445.094","0"
"GENERATED VIA SPACETRACK.ORG API","18 SPCS","55094","SPACEBEE-165","PAYLOAD","U","23001CP","2024-03-31 17:06:40","354848","15.38156844","0.0009534","97.4286","156.7031","72.7035","287.5252","0","999","6914","0.0012913","0.00048751","0","4256222","0 SPACEBEE-165","1 55094U 23001CP  24091.71296707  .00048751  00000-0  12913-2 0  9997","2 55094  97.4286 156.7031 0009534  72.7035 287.5252 15.38156844 69145","2023-001CP","55094","6829.697","93.619","458.073","445.050","0"
"GENERATED VIA SPACETRACK.ORG API","18 SPCS","55094","SPACEBEE-165","PAYLOAD","U","23001CP","2024-03-31 17:06:40","354848","15.38156844","0.0009534","97.4286","156.7031","72.7035","287.5252","0","999","6914","0.0012913","0.00048751","0","4256238","0 SPACEBEE-165","1 55094U 23001CP  24091.71296707  .00048751  00000-0  12913-2 0  9997","2 55094  97.4286 156.7031 0009534  72.7035 287.5252 15.38156844 69145","2023-001CP","55094","6829.697","93.619","458.073","445.050","0"
"GENERATED VIA SPACETRACK.ORG API","18 SPCS","55094","SPACEBEE-165","PAYLOAD","U","23001CP","2024-04-01 04:02:24","945792","15.38208123","0.0009413","97.4286","157.1639","71.524","288.7027","0","999","6921","0.0012475","0.00047161","0","4257565","0 SPACEBEE-165","1 55094U 23001CP  24092.16834428  .00047161  00000-0  12475-2 0  9992","2 55094  97.4286 157.1639 0009413  71.5240 288.7027 15.38208123 69214","2023-001CP","55094","6829.545","93.615","457.839","444.981","0"
"GENERATED VIA SPACETRACK.ORG API","18 SPCS","55094","SPACEBEE-165","PAYLOAD","U","23001CP","2024-04-01 21:12:49","758336","15.38278391","0.0009228","97.4289","157.8894","69.26","290.9633","0","999","6932","0.0012692","0.00048096","0","4258192","0 SPACEBEE-165","1 55094U 23001CP  24092.88390924  .00048096  00000-0  12692-2 0  9998","2 55094  97.4289 157.8894 0009228  69.2600 290.9633 15.38278391 69329","2023-001CP","55094","6829.337","93.611","457.504","444.900","0"
"GENERATED VIA SPACETRACK.ORG API","18 SPCS","55094","SPACEBEE-165","PAYLOAD","U","23001CP","2024-04-02 09:42:11","602080","15.38323384","0.0009232","97.4291","158.4161","67.0251","293.1967","0","999","6940","0.0012215","0.00046342","0","4259431","0 SPACEBEE-165","1 55094U 23001CP  24093.40430095  .00046342  00000-0  12215-2 0  9994","2 55094  97.4291 158.4161 0009232  67.0251 293.1967 15.38323384 69406","2023-001CP","55094","6829.204","93.608","457.374","444.764","0"
"GENERATED VIA SPACETRACK.ORG API","18 SPCS","55094","SPACEBEE-165","PAYLOAD","U","23001CP","2024-04-02 22:11:32","66016","15.38370117","0.000921","97.429","158.9429","65.3457","294.8746","0","999","6948","0.0011585","0.00044001","0","4260070","0 SPACEBEE-165","1 55094U 23001CP  24093.92467669  .00044001  00000-0  11585-2 0  9997","2 55094  97.4290 158.9429 0009210  65.3457 294.8746 15.38370117 69489","2023-001CP","55094","6829.066","93.606","457.220","444.641","0"
"GENERATED VIA SPACETRACK.ORG API","18 SPCS","55094","SPACEBEE-165","PAYLOAD","U","23001CP","2024-04-03 02:52:31","912320","15.38384974","0.0009192","97.429","159.1406","64.7021","295.5175","0","999","6951","0.0010623","0.0004034","0","4260554","0 SPACEBEE-165","1 55094U 23001CP  24094.11981380  .00040340  00000-0  10623-2 0  9994","2 55094  97.4290 159.1406 0009192  64.7021 295.5175 15.38384974 69510","2023-001CP","55094","6829.022","93.605","457.164","444.609","0"
"GENERATED VIA SPACETRACK.ORG API","18 SPCS","55094","SPACEBEE-165","PAYLOAD","U","23001CP","2024-04-03 02:52:31","912320","15.38384974","0.0009192","97.429","159.1406","64.7021","295.5175","0","999","6951","0.0010623","0.0004034","0","4261282","0 SPACEBEE-165","1 55094U 23001CP  24094.11981380  .00040340  00000-0  10623-2 0  9994","2 55094  97.4290 159.1406 0009192  64.7021 295.5175 15.38384974 69510","2023-001CP","55094","6829.022","93.605","457.164","444.609","0"
"GENERATED VIA SPACETRACK.ORG API","18 SPCS","55094","SPACEBEE-165","PAYLOAD","U","23001CP","2024-04-03 21:36:29","609280","15.38445007","0.0009132","97.4291","159.9312","62.1202","298.0967","0","999","6963","0.0010044","0.000382","0","4261881","0 SPACEBEE-165","1 55094U 23001CP  24094.90034270  .00038200  00000-0  10044-2 0  9997","2 55094  97.4291 159.9312 0009132  62.1202 298.0967 15.38445007 69637","2023-001CP","55094","6828.844","93.601","456.945","444.473","0"
"GENERATED VIA SPACETRACK.ORG API","18 SPCS","55094","SPACEBEE-165","PAYLOAD","U","23001CP","2024-04-04 03:51:08","301600","15.38464757","0.0009116","97.429","160.1947","61.2417","298.9743","0","999","6967","0.0010048","0.0003824","0","4262472","0 SPACEBEE-165","1 55094U 23001CP  24095.16051275  .00038240  00000-0  10048-2 0  9998","2 55094  97.4290 160.1947 0009116  61.2417 298.9743 15.38464757 69672","2023-001CP","55094","6828.786","93.600","456.876","444.425","0"
"GENERATED VIA SPACETRACK.ORG API","18 SPCS","55094","SPACEBEE-165","PAYLOAD","U","23001CP","2024-04-04 03:51:08","301600","15.38464757","0.0009116","97.429","160.1947","61.2417","298.9743","0","999","6967","0.0010048","0.0003824","0","4263133","0 SPACEBEE-165","1 55094U 23001CP  24095.16051275  .00038240  00000-0  10048-2 0  9998","2 55094  97.4290 160.1947 0009116  61.2417 298.9743 15.38464757 69672","2023-001CP","55094","6828.786","93.600","456.876","444.425","0"
